[{"OBJECT_NAME":"STARLINK-30120","OBJECT_ID":"2023-079B","EPOCH":"2026-03-09T22:00:01.999584","MEAN_MOTION":15.17882096,"ECCENTRICITY":0.0002013,"INCLINATION":42.9994,"RA_OF_ASC_NODE":105.6157,"ARG_OF_PERICENTER":280.1229,"MEAN_ANOMALY":118.6442,"EPHEMERIS_TYPE":0,"CLASSIFICATION_TYPE":"U","NORAD_CAT_ID":56824,"ELEMENT_SET_NO":999,"REV_AT_EPOCH":578,"BSTAR":0.059515571,"MEAN_MOTION_DOT":0.01333909,"MEAN_MOTION_DDOT":0},{"OBJECT_NAME":"LOBACHEVSKY (RS83S)","OBJECT_ID":"2025-313AN","EPOCH":"2026-03-09T21:53:46.312512","MEAN_MOTION":15.21792932,"ECCENTRICITY":0.0010507,"INCLINATION":97.399,"RA_OF_ASC_NODE":145.2052,"ARG_OF_PERICENTER":356.6168,"MEAN_ANOMALY":3.4996,"EPHEMERIS_TYPE":0,"CLASSIFICATION_TYPE":"U","NORAD_CAT_ID":67284,"ELEMENT_SET_NO":999,"REV_AT_EPOCH":1085,"BSTAR":0.00030825721,"MEAN_MOTION_DOT":6.937e-5,"MEAN_MOTION_DDOT":0}]
